{
  "type": "FeatureCollection",
  "features": [
    {
      "type": "Feature",
      "properties": {
        "norad_id": 41599,
        "name": "CARTOSAT-2C",
        "group": "resource",
        "lat": 49.05755166874354,
        "lon": 47.7349361181022,
        "alt_km": 497.2010038578619,
        "timestamp": "2025-12-25T07:41:09.380299+00:00",
        "meta_object_name": "CARTOSAT-2C",
        "meta_object_id": "2016-040A",
        "meta_epoch": "2025-12-24T23:33:53.640576",
        "meta_mean_motion": 15.19222936,
        "meta_eccentricity": 0.00107057,
        "meta_inclination": 97.4744,
        "meta_ra_of_asc_node": 56.1046,
        "meta_arg_of_pericenter": 24.2317,
        "meta_mean_anomaly": 335.9418,
        "meta_ephemeris_type": 0,
        "meta_classification_type": "U",
        "meta_norad_cat_id": 41599,
        "meta_element_set_no": 999,
        "meta_rev_at_epoch": 52726,
        "meta_bstar": 0.00022880792,
        "meta_mean_motion_dot": 4.756e-05,
        "meta_mean_motion_ddot": 0,
        "tle_line1": "1 41599U 16040A   25358.98187084  .00004756  00000+0  22881-3 0  9992",
        "tle_line2": "2 41599  97.4744  56.1046 0010705  24.2317 335.9418 15.19222936527264"
      },
      "geometry": {
        "type": "Point",
        "coordinates": [
          47.7349361181022,
          49.05755166874354
        ]
      }
    },
    {
      "type": "Feature",
      "properties": {
        "norad_id": 41601,
        "name": "SKYSAT-C1",
        "group": "resource",
        "lat": -5.671605368515723,
        "lon": 36.32163235763387,
        "alt_km": 470.6968177260105,
        "timestamp": "2025-12-25T07:41:09.380310+00:00",
        "meta_object_name": "SKYSAT-C1",
        "meta_object_id": "2016-040C",
        "meta_epoch": "2025-12-24T20:44:36.125664",
        "meta_mean_motion": 15.32803392,
        "meta_eccentricity": 9.494e-05,
        "meta_inclination": 96.9806,
        "meta_ra_of_asc_node": 35.1941,
        "meta_arg_of_pericenter": 324.7262,
        "meta_mean_anomaly": 35.3918,
        "meta_ephemeris_type": 0,
        "meta_classification_type": "U",
        "meta_norad_cat_id": 41601,
        "meta_element_set_no": 999,
        "meta_rev_at_epoch": 53113,
        "meta_bstar": 0.00032009116,
        "meta_mean_motion_dot": 0.00010072,
        "meta_mean_motion_ddot": 0,
        "tle_line1": "1 41601U 16040C   25358.86430701  .00010072  00000+0  32009-3 0  9991",
        "tle_line2": "2 41601  96.9806  35.1941 0000949 324.7262  35.3918 15.32803392531131"
      },
      "geometry": {
        "type": "Point",
        "coordinates": [
          36.32163235763387,
          -5.671605368515723
        ]
      }
    },
    {
      "type": "Feature",
      "properties": {
        "norad_id": 41603,
        "name": "LAPAN-A3",
        "group": "resource",
        "lat": 82.72286742539283,
        "lon": -82.72988278573838,
        "alt_km": 469.2008670667201,
        "timestamp": "2025-12-25T07:41:09.380321+00:00",
        "meta_object_name": "LAPAN-A3",
        "meta_object_id": "2016-040E",
        "meta_epoch": "2025-12-24T23:27:37.218240",
        "meta_mean_motion": 15.31650414,
        "meta_eccentricity": 0.0008679,
        "meta_inclination": 97.1434,
        "meta_ra_of_asc_node": 356.089,
        "meta_arg_of_pericenter": 283.0163,
        "meta_mean_anomaly": 77.011,
        "meta_ephemeris_type": 0,
        "meta_classification_type": "U",
        "meta_norad_cat_id": 41603,
        "meta_element_set_no": 999,
        "meta_rev_at_epoch": 52813,
        "meta_bstar": 0.00015826493,
        "meta_mean_motion_dot": 4.767e-05,
        "meta_mean_motion_ddot": 0,
        "tle_line1": "1 41603U 16040E   25358.97751410  .00004767  00000+0  15826-3 0  9990",
        "tle_line2": "2 41603  97.1434 356.0890 0008679 283.0163  77.0110 15.31650414528133"
      },
      "geometry": {
        "type": "Point",
        "coordinates": [
          -82.72988278573838,
          82.72286742539283
        ]
      }
    },
    {
      "type": "Feature",
      "properties": {
        "norad_id": 41604,
        "name": "BIROS",
        "group": "resource",
        "lat": 49.51886863034874,
        "lon": -140.34106789412405,
        "alt_km": 281.80446258827124,
        "timestamp": "2025-12-25T07:41:09.380331+00:00",
        "meta_object_name": "BIROS",
        "meta_object_id": "2016-040F",
        "meta_epoch": "2025-12-24T13:04:12.807552",
        "meta_mean_motion": 15.94433858,
        "meta_eccentricity": 0.00038069,
        "meta_inclination": 97.0656,
        "meta_ra_of_asc_node": 30.4902,
        "meta_arg_of_pericenter": 125.9749,
        "meta_mean_anomaly": 234.1881,
        "meta_ephemeris_type": 0,
        "meta_classification_type": "U",
        "meta_norad_cat_id": 41604,
        "meta_element_set_no": 999,
        "meta_rev_at_epoch": 53060,
        "meta_bstar": 0.00067310461,
        "meta_mean_motion_dot": 0.00251039,
        "meta_mean_motion_ddot": 2.6148042e-05,
        "tle_line1": "1 41604U 16040F   25358.54459268  .00251039  26148-4  67310-3 0  9997",
        "tle_line2": "2 41604  97.0656  30.4902 0003806 125.9749 234.1881 15.94433858530603"
      },
      "geometry": {
        "type": "Point",
        "coordinates": [
          -140.34106789412405,
          49.51886863034874
        ]
      }
    },
    {
      "type": "Feature",
      "properties": {
        "norad_id": 41727,
        "name": "GAOFEN-3",
        "group": "resource",
        "lat": 34.731804797291886,
        "lon": -169.4037560818014,
        "alt_km": 748.8727685252616,
        "timestamp": "2025-12-25T07:41:09.380342+00:00",
        "meta_object_name": "GAOFEN-3",
        "meta_object_id": "2016-049A",
        "meta_epoch": "2025-12-25T00:21:24.611616",
        "meta_mean_motion": 14.42216139,
        "meta_eccentricity": 0.00010824,
        "meta_inclination": 98.4035,
        "meta_ra_of_asc_node": 4.4135,
        "meta_arg_of_pericenter": 55.9867,
        "meta_mean_anomaly": 304.1425,
        "meta_ephemeris_type": 0,
        "meta_classification_type": "U",
        "meta_norad_cat_id": 41727,
        "meta_element_set_no": 999,
        "meta_rev_at_epoch": 49354,
        "meta_bstar": -5.688802e-06,
        "meta_mean_motion_dot": -6.2e-07,
        "meta_mean_motion_ddot": 0,
        "tle_line1": "1 41727U 16049A   25359.01486819 -.00000062  00000+0 -56888-5 0  9991",
        "tle_line2": "2 41727  98.4035   4.4135 0001082  55.9867 304.1425 14.42216139493547"
      },
      "geometry": {
        "type": "Point",
        "coordinates": [
          -169.4037560818014,
          34.731804797291886
        ]
      }
    },
    {
      "type": "Feature",
      "properties": {
        "norad_id": 41771,
        "name": "SKYSAT-C4",
        "group": "resource",
        "lat": 9.079362404173281,
        "lon": 22.782481844911388,
        "alt_km": 440.97699761080094,
        "timestamp": "2025-12-25T07:41:09.380353+00:00",
        "meta_object_name": "SKYSAT-C4",
        "meta_object_id": "2016-058B",
        "meta_epoch": "2025-12-24T19:11:29.833440",
        "meta_mean_motion": 15.42586627,
        "meta_eccentricity": 0.00025333,
        "meta_inclination": 96.9361,
        "meta_ra_of_asc_node": 23.4017,
        "meta_arg_of_pericenter": 124.0416,
        "meta_mean_anomaly": 236.1074,
        "meta_ephemeris_type": 0,
        "meta_classification_type": "U",
        "meta_norad_cat_id": 41771,
        "meta_element_set_no": 999,
        "meta_rev_at_epoch": 51853,
        "meta_bstar": 0.00035759888,
        "meta_mean_motion_dot": 0.00015476,
        "meta_mean_motion_ddot": 0,
        "tle_line1": "1 41771U 16058B   25358.79965085  .00015476  00000+0  35760-3 0  9998",
        "tle_line2": "2 41771  96.9361  23.4017 0002533 124.0416 236.1074 15.42586627518535"
      },
      "geometry": {
        "type": "Point",
        "coordinates": [
          22.782481844911388,
          9.079362404173281
        ]
      }
    },
    {
      "type": "Feature",
      "properties": {
        "norad_id": 41772,
        "name": "SKYSAT-C5",
        "group": "resource",
        "lat": -82.26419072917584,
        "lon": 156.45814526609215,
        "alt_km": 468.79042171970195,
        "timestamp": "2025-12-25T07:41:09.380363+00:00",
        "meta_object_name": "SKYSAT-C5",
        "meta_object_id": "2016-058C",
        "meta_epoch": "2025-12-24T16:26:12.494112",
        "meta_mean_motion": 15.34086313,
        "meta_eccentricity": 0.00039444,
        "meta_inclination": 97.0739,
        "meta_ra_of_asc_node": 41.9366,
        "meta_arg_of_pericenter": 233.2582,
        "meta_mean_anomaly": 126.83,
        "meta_ephemeris_type": 0,
        "meta_classification_type": "U",
        "meta_norad_cat_id": 41772,
        "meta_element_set_no": 999,
        "meta_rev_at_epoch": 51699,
        "meta_bstar": 0.00029731839,
        "meta_mean_motion_dot": 9.736e-05,
        "meta_mean_motion_ddot": 0,
        "tle_line1": "1 41772U 16058C   25358.68486683  .00009736  00000+0  29732-3 0  9993",
        "tle_line2": "2 41772  97.0739  41.9366 0003944 233.2582 126.8300 15.34086313516996"
      },
      "geometry": {
        "type": "Point",
        "coordinates": [
          156.45814526609215,
          -82.26419072917584
        ]
      }
    }
  ]
}